start=new Date('2022-01-20T00:00:00.000Z').valueOf();
sats=[{"LAUNCH_DATE":"2020-01-07","CLASSIFICATION_TYPE":"U","MEAN_ELEMENT_THEORY":"SGP4","MEAN_MOTION_DDOT":"0.0000000000000","CENTER_NAME":"EARTH","PERIOD":"95.593","APOAPSIS":"548.507","MEAN_ANOMALY":"296.0230","TLE_LINE1":"1 44927U 20001P   22019.52032931  .00004245  00000-0  30375-3 0  9994","OBJECT_NAME":"STARLINK-1114","NORAD_CAT_ID":"44927","MEAN_MOTION":"15.06391415","DECAY_DATE":null,"MEAN_MOTION_DOT":"0.00004245","OBJECT_ID":"2020-001P","REV_AT_EPOCH":"11223","SITE":"AFETR","TLE_LINE2":"2 44927  53.0542 286.0274 0001830  64.0947 296.0230 15.06391415112234","PERIAPSIS":"545.973","ARG_OF_PERICENTER":"64.0947","TIME_SYSTEM":"UTC","FILE":"3277432","OBJECT_TYPE":"PAYLOAD","EPOCH":"2022-01-19T12:29:16.452384","RCS_SIZE":"LARGE","REF_FRAME":"TEME","ELEMENT_SET_NO":"999","RA_OF_ASC_NODE":"286.0274","GP_ID":"194190836","SEMIMAJOR_AXIS":"6925.375","BSTAR":"0.00030375000000","EPHEMERIS_TYPE":"0","ECCENTRICITY":"0.00018300","COUNTRY_CODE":"US","INCLINATION":"53.0542"},{"EPOCH":"2022-01-19T12:23:59.604576","OBJECT_TYPE":"PAYLOAD","RCS_SIZE":"LARGE","ELEMENT_SET_NO":"999","REF_FRAME":"TEME","ARG_OF_PERICENTER":"66.1773","TLE_LINE2":"2 44928  53.0537 286.0604 0001665  66.1773 293.9390 15.06378223112237","PERIAPSIS":"546.127","SITE":"AFETR","TIME_SYSTEM":"UTC","FILE":"3277867","ECCENTRICITY":"0.00016650","COUNTRY_CODE":"US","INCLINATION":"53.0537","GP_ID":"194200567","RA_OF_ASC_NODE":"286.0604","BSTAR":"0.00020058000000","SEMIMAJOR_AXIS":"6925.415","EPHEMERIS_TYPE":"0","MEAN_ANOMALY":"293.9390","TLE_LINE1":"1 44928U 20001Q   22019.51666209  .00002706  00000-0  20058-3 0  9992","OBJECT_NAME":"STARLINK-1119","APOAPSIS":"548.433","NORAD_CAT_ID":"44928","DECAY_DATE":null,"MEAN_MOTION":"15.06378223","MEAN_ELEMENT_THEORY":"SGP4","CLASSIFICATION_TYPE":"U","LAUNCH_DATE":"2020-01-07","CENTER_NAME":"EARTH","PERIOD":"95.594","MEAN_MOTION_DDOT":"0.0000000000000","MEAN_MOTION_DOT":"0.00002706","REV_AT_EPOCH":"11223","OBJECT_ID":"2020-001Q"},{"MEAN_MOTION":"15.06384140","DECAY_DATE":null,"NORAD_CAT_ID":"44929","APOAPSIS":"548.376","TLE_LINE1":"1 44929U 20001R   22019.43556372  .00002185  00000-0  16558-3 0  9994","MEAN_ANOMALY":"295.8471","OBJECT_NAME":"STARLINK-1121","MEAN_MOTION_DDOT":"0.0000000000000","PERIOD":"95.593","CENTER_NAME":"EARTH","LAUNCH_DATE":"2020-01-07","CLASSIFICATION_TYPE":"U","MEAN_ELEMENT_THEORY":"SGP4","OBJECT_ID":"2020-001R","REV_AT_EPOCH":"11221","MEAN_MOTION_DOT":"0.00002185","REF_FRAME":"TEME","ELEMENT_SET_NO":"999","RCS_SIZE":"LARGE","OBJECT_TYPE":"PAYLOAD","EPOCH":"2022-01-19T10:27:12.705408","FILE":"3277432","TIME_SYSTEM":"UTC","PERIAPSIS":"546.148","TLE_LINE2":"2 44929  53.0543 286.4065 0001609  64.2684 295.8471 15.06384140112212","SITE":"AFETR","ARG_OF_PERICENTER":"64.2684","INCLINATION":"53.0543","COUNTRY_CODE":"US","ECCENTRICITY":"0.00016090","EPHEMERIS_TYPE":"0","SEMIMAJOR_AXIS":"6925.397","BSTAR":"0.00016558000000","RA_OF_ASC_NODE":"286.4065","GP_ID":"194190334"},{"APOAPSIS":"548.338","OBJECT_NAME":"STARLINK-1123","TLE_LINE1":"1 44930U 20001S   22019.86680706  .00010461  00000-0  71993-3 0  9992","MEAN_ANOMALY":"295.1678","MEAN_MOTION":"15.06411976","DECAY_DATE":null,"NORAD_CAT_ID":"44930","LAUNCH_DATE":"2020-01-07","CLASSIFICATION_TYPE":"U","MEAN_ELEMENT_THEORY":"SGP4","MEAN_MOTION_DDOT":"0.0000000000000","PERIOD":"95.591","CENTER_NAME":"EARTH","OBJECT_ID":"2020-001S","REV_AT_EPOCH":"11228","MEAN_MOTION_DOT":"0.00010461","RCS_SIZE":"LARGE","OBJECT_TYPE":"PAYLOAD","EPOCH":"2022-01-19T20:48:12.129984","REF_FRAME":"TEME","ELEMENT_SET_NO":"999","PERIAPSIS":"546.015","TLE_LINE2":"2 44930  53.0526 284.4792 0001677  64.9485 295.1678 15.06411976112288","SITE":"AFETR","ARG_OF_PERICENTER":"64.9485","FILE":"3277867","TIME_SYSTEM":"UTC","ECCENTRICITY":"0.00016770","INCLINATION":"53.0526","COUNTRY_CODE":"US","SEMIMAJOR_AXIS":"6925.312","BSTAR":"0.00071993000000","RA_OF_ASC_NODE":"284.4792","GP_ID":"194200521","EPHEMERIS_TYPE":"0"},{"TLE_LINE2":"2 44931  53.0528 285.0917 0002930  88.8800 271.2526 15.09922334112988","PERIAPSIS":"534.413","SITE":"AFETR","ARG_OF_PERICENTER":"88.8800","TIME_SYSTEM":"UTC","FILE":"3277432","OBJECT_TYPE":"PAYLOAD","EPOCH":"2022-01-19T11:13:36.691392","RCS_SIZE":"LARGE","REF_FRAME":"TEME","ELEMENT_SET_NO":"999","GP_ID":"194191336","RA_OF_ASC_NODE":"285.0917","SEMIMAJOR_AXIS":"6914.574","BSTAR":"0.00091108000000","EPHEMERIS_TYPE":"0","ECCENTRICITY":"0.00029300","COUNTRY_CODE":"US","INCLINATION":"53.0528","LAUNCH_DATE":"2020-01-07","CLASSIFICATION_TYPE":"U","MEAN_ELEMENT_THEORY":"SGP4","MEAN_MOTION_DDOT":"0.0000000000000","PERIOD":"95.369","CENTER_NAME":"EARTH","APOAPSIS":"538.465","MEAN_ANOMALY":"271.2526","TLE_LINE1":"1 44931U 20001T   22019.46778578  .00014679  00000-0  91108-3 0  9999","OBJECT_NAME":"STARLINK-1128","NORAD_CAT_ID":"44931","MEAN_MOTION":"15.09922334","DECAY_DATE":null,"MEAN_MOTION_DOT":"0.00014679","OBJECT_ID":"2020-001T","REV_AT_EPOCH":"11298"},{"MEAN_MOTION_DOT":"0.00002277","REV_AT_EPOCH":"11345","OBJECT_ID":"2020-001U","TLE_LINE1":"1 44932U 20001U   22019.45767198  .00002277  00000-0  17174-3 0  9997","MEAN_ANOMALY":"298.3421","OBJECT_NAME":"STARLINK-1130","APOAPSIS":"548.334","NORAD_CAT_ID":"44932","DECAY_DATE":null,"MEAN_MOTION":"15.06386563","MEAN_ELEMENT_THEORY":"SGP4","LAUNCH_DATE":"2020-01-07","CLASSIFICATION_TYPE":"U","PERIOD":"95.593","CENTER_NAME":"EARTH","MEAN_MOTION_DDOT":"0.0000000000000","ECCENTRICITY":"0.00015580","COUNTRY_CODE":"US","INCLINATION":"53.0545","RA_OF_ASC_NODE":"286.3208","GP_ID":"194189585","BSTAR":"0.00017174000000","SEMIMAJOR_AXIS":"6925.390","EPHEMERIS_TYPE":"0","EPOCH":"2022-01-19T10:59:02.859072","OBJECT_TYPE":"PAYLOAD","RCS_SIZE":"LARGE","ELEMENT_SET_NO":"999","REF_FRAME":"TEME","ARG_OF_PERICENTER":"61.7725","SITE":"AFETR","TLE_LINE2":"2 44932  53.0545 286.3208 0001558  61.7725 298.3421 15.06386563113458","PERIAPSIS":"546.176","TIME_SYSTEM":"UTC","FILE":"3277432"},{"ELEMENT_SET_NO":"999","REF_FRAME":"TEME","RCS_SIZE":"LARGE","EPOCH":"2022-01-19T05:14:02.772096","OBJECT_TYPE":"PAYLOAD","FILE":"3277432","TIME_SYSTEM":"UTC","ARG_OF_PERICENTER":"71.9108","SITE":"AFETR","TLE_LINE2":"2 44933  53.0545 287.3949 0001544  71.9108 288.2049 15.06391371113474","PERIAPSIS":"546.171","INCLINATION":"53.0545","COUNTRY_CODE":"US","ECCENTRICITY":"0.00015440","EPHEMERIS_TYPE":"0","BSTAR":"0.00035903000000","SEMIMAJOR_AXIS":"6925.375","GP_ID":"194189835","RA_OF_ASC_NODE":"287.3949","DECAY_DATE":null,"MEAN_MOTION":"15.06391371","NORAD_CAT_ID":"44933","MEAN_ANOMALY":"288.2049","TLE_LINE1":"1 44933U 20001V   22019.21808764  .00005069  00000-0  35903-3 0  9999","OBJECT_NAME":"STARLINK-1144","APOAPSIS":"548.309","PERIOD":"95.593","CENTER_NAME":"EARTH","MEAN_MOTION_DDOT":"0.0000000000000","MEAN_ELEMENT_THEORY":"SGP4","LAUNCH_DATE":"2020-01-07","CLASSIFICATION_TYPE":"U","REV_AT_EPOCH":"11347","OBJECT_ID":"2020-001V","MEAN_MOTION_DOT":"0.00005069"},{"MEAN_ELEMENT_THEORY":"SGP4","LAUNCH_DATE":"2020-01-07","CLASSIFICATION_TYPE":"U","PERIOD":"95.592","CENTER_NAME":"EARTH","MEAN_MOTION_DDOT":"0.0000000000000","TLE_LINE1":"1 44934U 20001W   22019.16464818 -.00000196  00000-0  57566-5 0  9990","MEAN_ANOMALY":"280.6271","OBJECT_NAME":"STARLINK-1071","APOAPSIS":"548.443","DECAY_DATE":null,"MEAN_MOTION":"15.06394904","NORAD_CAT_ID":"44934","REV_AT_EPOCH":"11245","OBJECT_ID":"2020-001W","MEAN_MOTION_DOT":"-0.00000196","ARG_OF_PERICENTER":"79.4915","SITE":"AFETR","TLE_LINE2":"2 44934  53.0544 267.6323 0001752  79.4915 280.6271 15.06394904112456","PERIAPSIS":"546.016","FILE":"3277432","TIME_SYSTEM":"UTC","RCS_SIZE":"LARGE","EPOCH":"2022-01-19T03:57:05.602752","OBJECT_TYPE":"PAYLOAD","ELEMENT_SET_NO":"999","REF_FRAME":"TEME","BSTAR":"0.00000575660000","SEMIMAJOR_AXIS":"6925.364","RA_OF_ASC_NODE":"267.6323","GP_ID":"194191086","EPHEMERIS_TYPE":"0","ECCENTRICITY":"0.00017520","INCLINATION":"53.0544","COUNTRY_CODE":"US"},{"TIME_SYSTEM":"UTC","FILE":"3277432","ARG_OF_PERICENTER":"67.4600","TLE_LINE2":"2 44937  53.0544 266.5431 0001925  67.4600 292.6592 15.06383785112495","PERIAPSIS":"545.930","SITE":"AFETR","ELEMENT_SET_NO":"999","REF_FRAME":"TEME","EPOCH":"2022-01-19T09:47:23.906976","OBJECT_TYPE":"PAYLOAD","RCS_SIZE":"LARGE","EPHEMERIS_TYPE":"0","GP_ID":"194190837","RA_OF_ASC_NODE":"266.5431","BSTAR":"0.00012275000000","SEMIMAJOR_AXIS":"6925.398","COUNTRY_CODE":"US","INCLINATION":"53.0544","ECCENTRICITY":"0.00019250","CENTER_NAME":"EARTH","PERIOD":"95.593","MEAN_MOTION_DDOT":"0.0000000000000","MEAN_ELEMENT_THEORY":"SGP4","CLASSIFICATION_TYPE":"U","LAUNCH_DATE":"2020-01-07","NORAD_CAT_ID":"44937","DECAY_DATE":null,"MEAN_MOTION":"15.06383785","OBJECT_NAME":"STARLINK-1079","TLE_LINE1":"1 44937U 20001Z   22019.40791559  .00001546  00000-0  12275-3 0  9990","MEAN_ANOMALY":"292.6592","APOAPSIS":"548.596","MEAN_MOTION_DOT":"0.00001546","REV_AT_EPOCH":"11249","OBJECT_ID":"2020-001Z"},{"MEAN_ANOMALY":"295.7493","TLE_LINE1":"1 44938U 20001AA  22019.37473749  .00001565  00000-0  12399-3 0  9993","OBJECT_NAME":"STARLINK-1082","APOAPSIS":"548.520","DECAY_DATE":null,"MEAN_MOTION":"15.06389565","NORAD_CAT_ID":"44938","MEAN_ELEMENT_THEORY":"SGP4","CLASSIFICATION_TYPE":"U","LAUNCH_DATE":"2020-01-07","PERIOD":"95.593","CENTER_NAME":"EARTH","MEAN_MOTION_DDOT":"0.0000000000000","REV_AT_EPOCH":"11248","OBJECT_ID":"2020-001AA","MEAN_MOTION_DOT":"0.00001565","RCS_SIZE":"LARGE","EPOCH":"2022-01-19T08:59:37.319136","OBJECT_TYPE":"PAYLOAD","ELEMENT_SET_NO":"999","REF_FRAME":"TEME","ARG_OF_PERICENTER":"64.3686","SITE":"AFETR","TLE_LINE2":"2 44938  53.0546 266.6880 0001840  64.3686 295.7493 15.06389565112488","PERIAPSIS":"545.971","FILE":"3277432","TIME_SYSTEM":"UTC","ECCENTRICITY":"0.00018400","INCLINATION":"53.0546","COUNTRY_CODE":"US","BSTAR":"0.00012399000000","SEMIMAJOR_AXIS":"6925.381","RA_OF_ASC_NODE":"266.6880","GP_ID":"194190085","EPHEMERIS_TYPE":"0"}];
